EUTELSAT 7A             
1 28187U 04008A   25253.33864062  .00000102  00000+0  00000+0 0  9998
2 28187   5.1136  75.3407 0001919 150.2450 106.7670  1.00272645 78545
EUTELSAT 174A           
1 28924U 05052A   25253.35530802  .00000008  00000+0  00000+0 0  9996
2 28924   3.5041  80.0013 0006162  92.3544 119.1805  1.00271536 49524
EUTELSAT HOTBIRD 13B    
1 29270U 06032A   25253.23854403  .00000154  00000+0  00000+0 0  9995
2 29270   0.9321  85.3498 0003964  81.3041 301.8274  1.00272024 44509
EUTELSAT HOTBIRD 13C    
1 33459U 08065A   25253.30085763 -.00000102  00000+0  00000+0 0  9994
2 33459   2.2246  82.5205 0004495 111.5190 251.3670  1.00271338 44540
EUTELSAT 36B            
1 36101U 09065A   25253.09921465  .00000110  00000+0  00000+0 0  9994
2 36101   0.0621 349.5583 0005740 190.4623 255.5869  1.00274151 57890
EUTELSAT KA-SAT 9A      
1 37258U 10069A   25253.23377734  .00000059  00000+0  00000+0 0  9996
2 37258   0.0548 325.3771 0003213 172.3993 304.8870  1.00269002 41190
EUTELSAT 7 WEST A       
1 37816U 11051A   25253.30189763 -.00000063  00000+0  00000+0 0  9995
2 37816   0.0650 357.7437 0005963 181.4804 271.7301  1.00270916 51084
EUTELSAT 16A            
1 37836U 11057A   25253.23507735  .00000102  00000+0  00000+0 0  9991
2 37836   0.0646 354.3826 0005398 173.5968 282.1514  1.00271697  4527
